BEIJING 1               
1 28890U 05043A   22316.35673773  .00000381  00000+0  86079-4 0  9999
2 28890  98.1371  76.1923 0016391  73.4609 286.8398 14.61540180908747
HJ-1A                   
1 33320U 08041A   22316.35524132  .00000748  00000+0  11003-3 0  9999
2 33320  97.6650 342.3920 0022397 109.4577 250.9049 14.77984373764239
HJ-1B                   
1 33321U 08041B   22316.37420052  .00001611  00000+0  22771-3 0  9992
2 33321  97.6811 346.2718 0035338 127.6448 232.7971 14.78019082764234
YAOGAN 4                
1 33446U 08061A   22316.42500361  .00000975  00000+0  14326-3 0  9999
2 33446  97.8303 252.1405 0016749  20.1842 340.0028 14.77572565751442
DEIMOS-1                
1 35681U 09041A   22316.43790380  .00000666  00000+0  11299-3 0  9997
2 35681  97.6962 159.8055 0002883  95.9118 264.2406 14.72171288713546
UK-DMC 2                
1 35683U 09041C   22316.38981805  .00001049  00000+0  17603-3 0  9998
2 35683  97.7085 121.5785 0001584  98.9303 261.2084 14.71590492713266
RISAT 1                 
1 38248U 12017A   22316.53769054  .00003987  00000+0  22967-3 0  9994
2 38248  97.5507 326.3507 0005709 103.2010 256.9858 15.12972179581229
DMC3-FM1                
1 40715U 15032A   22316.37935340  .00000934  00000+0  12341-3 0  9995
2 40715  97.8247 200.1237 0007062  46.5640 313.6137 14.82275533395204
DMC3-FM2                
1 40716U 15032B   22316.33509787  .00000959  00000+0  12654-3 0  9998
2 40716  97.8292 200.7990 0009081  46.7919 313.4038 14.82268882395208
DMC3-FM3                
1 40717U 15032C   22316.42295112 -.00005152  00000+0 -63928-3 0  9995
2 40717  97.8334 201.8662 0011084  42.3577 317.8547 14.82234057395213
